TEVEL2-6                
1 63215U 25052F   26068.64958975  .00021046  00000+0  70909-3 0  9996
2 63215  97.4016 325.0381 0004769  95.6604 264.5181 15.30760889 54861
STARLINK-35349          
1 65835U 25221N   26068.33313934  .00022314  00000+0  76326-3 0  9998
2 65835  53.1591  90.3675 0001193  85.8820 274.2317 15.30199749 24671
